[{"OBJECT_NAME":"STARLINK-11457 [DTC]","OBJECT_ID":"2025-027N","EPOCH":"2026-03-09T04:00:07.439328","MEAN_MOTION":15.70883166,"ECCENTRICITY":0.00018723,"INCLINATION":42.9996,"RA_OF_ASC_NODE":350.4756,"ARG_OF_PERICENTER":298.8787,"MEAN_ANOMALY":61.1893,"EPHEMERIS_TYPE":0,"CLASSIFICATION_TYPE":"U","NORAD_CAT_ID":62919,"ELEMENT_SET_NO":999,"REV_AT_EPOCH":6307,"BSTAR":0.0023526132,"MEAN_MOTION_DOT":0.00313666,"MEAN_MOTION_DDOT":0},{"OBJECT_NAME":"SL-16 DEB","OBJECT_ID":"1992-093LF","EPOCH":"2026-03-01T22:50:07.505664","MEAN_MOTION":15.66314523,"ECCENTRICITY":0.0005733,"INCLINATION":71.2496,"RA_OF_ASC_NODE":309.1259,"ARG_OF_PERICENTER":53.7691,"MEAN_ANOMALY":306.4041,"EPHEMERIS_TYPE":0,"CLASSIFICATION_TYPE":"U","NORAD_CAT_ID":39853,"ELEMENT_SET_NO":999,"REV_AT_EPOCH":63666,"BSTAR":0.0026636,"MEAN_MOTION_DOT":0.00285901,"MEAN_MOTION_DDOT":0}]
